{
  "type": "FeatureCollection",
  "features": [
    {
      "type": "Feature",
      "properties": {
        "norad_id": 35433,
        "name": "COSMOS 2251 DEB",
        "group": "cosmos-2251-debris",
        "lat": -22.24939674546833,
        "lon": -35.45344822202282,
        "alt_km": 768.770086584158,
        "timestamp": "2025-12-16T15:45:51.441910+00:00",
        "meta_object_name": "COSMOS 2251 DEB",
        "meta_object_id": "1993-036AKB",
        "meta_epoch": "2025-12-10T18:27:52.031808",
        "meta_mean_motion": 14.34742553,
        "meta_eccentricity": 0.00254013,
        "meta_inclination": 74.0339,
        "meta_ra_of_asc_node": 342.0559,
        "meta_arg_of_pericenter": 37.4572,
        "meta_mean_anomaly": 142.4072,
        "meta_ephemeris_type": 0,
        "meta_classification_type": "U",
        "meta_norad_cat_id": 35433,
        "meta_element_set_no": 999,
        "meta_rev_at_epoch": 86552,
        "meta_bstar": 0.00041847558,
        "meta_mean_motion_dot": 1.164e-05,
        "meta_mean_motion_ddot": 0,
        "tle_line1": "1 35433U 93036AKB 25344.76935222  .00001164  00000+0  41848-3 0  9992",
        "tle_line2": "2 35433  74.0339 342.0559 0025401  37.4572 142.4072 14.34742553865528"
      },
      "geometry": {
        "type": "Point",
        "coordinates": [
          -35.45344822202282,
          -22.24939674546833
        ]
      }
    },
    {
      "type": "Feature",
      "properties": {
        "norad_id": 35434,
        "name": "COSMOS 2251 DEB",
        "group": "cosmos-2251-debris",
        "lat": 52.75448113159912,
        "lon": 4.447001059715134,
        "alt_km": 856.3782708330446,
        "timestamp": "2025-12-16T15:45:51.441919+00:00",
        "meta_object_name": "COSMOS 2251 DEB",
        "meta_object_id": "1993-036AKC",
        "meta_epoch": "2025-12-13T21:29:58.278624",
        "meta_mean_motion": 14.25692247,
        "meta_eccentricity": 0.00874643,
        "meta_inclination": 74.0404,
        "meta_ra_of_asc_node": 211.5388,
        "meta_arg_of_pericenter": 282.0357,
        "meta_mean_anomaly": 77.0999,
        "meta_ephemeris_type": 0,
        "meta_classification_type": "U",
        "meta_norad_cat_id": 35434,
        "meta_element_set_no": 999,
        "meta_rev_at_epoch": 86134,
        "meta_bstar": 0.00076141319,
        "meta_mean_motion_dot": 1.854e-05,
        "meta_mean_motion_ddot": 0,
        "tle_line1": "1 35434U 93036AKC 25347.89581341  .00001854  00000+0  76141-3 0  9999",
        "tle_line2": "2 35434  74.0404 211.5388 0087464 282.0357  77.0999 14.25692247861349"
      },
      "geometry": {
        "type": "Point",
        "coordinates": [
          4.447001059715134,
          52.75448113159912
        ]
      }
    },
    {
      "type": "Feature",
      "properties": {
        "norad_id": 35435,
        "name": "COSMOS 2251 DEB",
        "group": "cosmos-2251-debris",
        "lat": -17.459634769614105,
        "lon": 91.18343142616109,
        "alt_km": 643.1779345001396,
        "timestamp": "2025-12-16T15:45:51.441929+00:00",
        "meta_object_name": "COSMOS 2251 DEB",
        "meta_object_id": "1993-036AKD",
        "meta_epoch": "2025-12-15T01:40:55.350912",
        "meta_mean_motion": 14.78555349,
        "meta_eccentricity": 0.00077045,
        "meta_inclination": 74.0104,
        "meta_ra_of_asc_node": 99.4797,
        "meta_arg_of_pericenter": 193.6881,
        "meta_mean_anomaly": 345.6328,
        "meta_ephemeris_type": 0,
        "meta_classification_type": "U",
        "meta_norad_cat_id": 35435,
        "meta_element_set_no": 999,
        "meta_rev_at_epoch": 87573,
        "meta_bstar": 0.0012569511,
        "meta_mean_motion_dot": 9.173e-05,
        "meta_mean_motion_ddot": 0,
        "tle_line1": "1 35435U 93036AKD 25349.07008508  .00009173  00000+0  12570-2 0  9998",
        "tle_line2": "2 35435  74.0104  99.4797 0007704 193.6881 345.6328 14.78555349875739"
      },
      "geometry": {
        "type": "Point",
        "coordinates": [
          91.18343142616109,
          -17.459634769614105
        ]
      }
    },
    {
      "type": "Feature",
      "properties": {
        "norad_id": 35439,
        "name": "COSMOS 2251 DEB",
        "group": "cosmos-2251-debris",
        "lat": 36.166869950907945,
        "lon": -64.06397550611344,
        "alt_km": 1074.3648697965336,
        "timestamp": "2025-12-16T15:45:51.441939+00:00",
        "meta_object_name": "COSMOS 2251 DEB",
        "meta_object_id": "1993-036AKH",
        "meta_epoch": "2025-12-14T03:35:04.308288",
        "meta_mean_motion": 13.92816223,
        "meta_eccentricity": 0.02421462,
        "meta_inclination": 74.018,
        "meta_ra_of_asc_node": 132.3236,
        "meta_arg_of_pericenter": 301.3061,
        "meta_mean_anomaly": 233.8403,
        "meta_ephemeris_type": 0,
        "meta_classification_type": "U",
        "meta_norad_cat_id": 35439,
        "meta_element_set_no": 999,
        "meta_rev_at_epoch": 83980,
        "meta_bstar": 0.0018477357,
        "meta_mean_motion_dot": 3.02e-05,
        "meta_mean_motion_ddot": 0,
        "tle_line1": "1 35439U 93036AKH 25348.14935542  .00003020  00000+0  18477-2 0  9993",
        "tle_line2": "2 35439  74.0180 132.3236 0242146 301.3061 233.8403 13.92816223839807"
      },
      "geometry": {
        "type": "Point",
        "coordinates": [
          -64.06397550611344,
          36.166869950907945
        ]
      }
    },
    {
      "type": "Feature",
      "properties": {
        "norad_id": 35440,
        "name": "COSMOS 2251 DEB",
        "group": "cosmos-2251-debris",
        "lat": -23.617420887207032,
        "lon": 27.23712390407391,
        "alt_km": 704.6349864224803,
        "timestamp": "2025-12-16T15:45:51.441949+00:00",
        "meta_object_name": "COSMOS 2251 DEB",
        "meta_object_id": "1993-036AKJ",
        "meta_epoch": "2025-12-15T07:46:28.648416",
        "meta_mean_motion": 14.68828741,
        "meta_eccentricity": 0.00694074,
        "meta_inclination": 74.0146,
        "meta_ra_of_asc_node": 202.6185,
        "meta_arg_of_pericenter": 342.923,
        "meta_mean_anomaly": 16.9604,
        "meta_ephemeris_type": 0,
        "meta_classification_type": "U",
        "meta_norad_cat_id": 35440,
        "meta_element_set_no": 999,
        "meta_rev_at_epoch": 68803,
        "meta_bstar": 0.00030871729,
        "meta_mean_motion_dot": 1.836e-05,
        "meta_mean_motion_ddot": 0,
        "tle_line1": "1 35440U 93036AKJ 25349.32394269  .00001836  00000+0  30872-3 0  9998",
        "tle_line2": "2 35440  74.0146 202.6185 0069407 342.9230  16.9604 14.68828741688033"
      },
      "geometry": {
        "type": "Point",
        "coordinates": [
          27.23712390407391,
          -23.617420887207032
        ]
      }
    },
    {
      "type": "Feature",
      "properties": {
        "norad_id": 35441,
        "name": "COSMOS 2251 DEB",
        "group": "cosmos-2251-debris",
        "lat": 65.3915994207695,
        "lon": -30.97551835639071,
        "alt_km": 688.8211744428836,
        "timestamp": "2025-12-16T15:45:51.441959+00:00",
        "meta_object_name": "COSMOS 2251 DEB",
        "meta_object_id": "1993-036AKK",
        "meta_epoch": "2025-12-15T03:19:30.492768",
        "meta_mean_motion": 14.62637993,
        "meta_eccentricity": 0.00365994,
        "meta_inclination": 74.1346,
        "meta_ra_of_asc_node": 293.5313,
        "meta_arg_of_pericenter": 189.4895,
        "meta_mean_anomaly": 170.5586,
        "meta_ephemeris_type": 0,
        "meta_classification_type": "U",
        "meta_norad_cat_id": 35441,
        "meta_element_set_no": 999,
        "meta_rev_at_epoch": 87465,
        "meta_bstar": 0.00095338273,
        "meta_mean_motion_dot": 4.868e-05,
        "meta_mean_motion_ddot": 0,
        "tle_line1": "1 35441U 93036AKK 25349.13854737  .00004868  00000+0  95338-3 0  9995",
        "tle_line2": "2 35441  74.1346 293.5313 0036599 189.4895 170.5586 14.62637993874658"
      },
      "geometry": {
        "type": "Point",
        "coordinates": [
          -30.97551835639071,
          65.3915994207695
        ]
      }
    },
    {
      "type": "Feature",
      "properties": {
        "norad_id": 35442,
        "name": "COSMOS 2251 DEB",
        "group": "cosmos-2251-debris",
        "lat": -72.24281202027836,
        "lon": -25.20618611258435,
        "alt_km": 624.3982471212676,
        "timestamp": "2025-12-16T15:45:51.441969+00:00",
        "meta_object_name": "COSMOS 2251 DEB",
        "meta_object_id": "1993-036AKL",
        "meta_epoch": "2025-12-15T06:14:28.124736",
        "meta_mean_motion": 14.84554813,
        "meta_eccentricity": 0.00037066,
        "meta_inclination": 74.0274,
        "meta_ra_of_asc_node": 94.1345,
        "meta_arg_of_pericenter": 78.0277,
        "meta_mean_anomaly": 282.1317,
        "meta_ephemeris_type": 0,
        "meta_classification_type": "U",
        "meta_norad_cat_id": 35442,
        "meta_element_set_no": 999,
        "meta_rev_at_epoch": 87390,
        "meta_bstar": 0.0013919969,
        "meta_mean_motion_dot": 0.00011734,
        "meta_mean_motion_ddot": 0,
        "tle_line1": "1 35442U 93036AKL 25349.26004774  .00011734  00000+0  13920-2 0  9994",
        "tle_line2": "2 35442  74.0274  94.1345 0003706  78.0277 282.1317 14.84554813873901"
      },
      "geometry": {
        "type": "Point",
        "coordinates": [
          -25.20618611258435,
          -72.24281202027836
        ]
      }
    }
  ]
}